{
  "norad_id": 62882,
  "name": "STARLINK-11432 [DTC]",
  "history": [
    {
      "epoch": "2026-03-28T15:13:22.063296",
      "apogee_km": 356.51519743928475,
      "perigee_km": 356.19059502628534,
      "latitude_deg": 23.34010655539145,
      "longitude_deg": 169.09118144004606,
      "semi_major_axis_km": 6734.489896232784,
      "eccentricity": 2.41e-05,
      "inclination_deg": 43.0013,
      "raan_deg": 67.4835,
      "arg_perigee_deg": 33.7078,
      "mean_anomaly_deg": 326.3805,
      "mean_motion_rev_day": 15.70889741
    }
  ]
}